NORAD_CAT_ID,OBJECT_NAME,OBJECT_TYPE,EPOCH,MEAN_MOTION,ECCENTRICITY,INCLINATION,RA_OF_ASC_NODE,ARG_OF_PERICENTER,MEAN_ANOMALY,BSTAR,MEAN_MOTION_DOT,MEAN_MOTION_DDOT,TLE_LINE0,TLE_LINE1,TLE_LINE2,SEMIMAJOR_AXIS,PERIOD,APOGEE,PERIGEE,DECAYED
50827.0,STARLINK-3329,PAYLOAD,2023-12-10 21:42:34,15.08836928,0.0001785,53.2172,249.2796,107.8734,252.2453,-3.4534e-05,-8.38e-06,0.0,0 STARLINK-3329,1 50827U 22001AA  23344.90456227 -.00000838  00000-0 -34534-4 0  9992,2 50827  53.2172 249.2796 0001785 107.8734 252.2453 15.08836928106644,6917.89,95.438,540.99,538.52,0.0
50827.0,STARLINK-3329,PAYLOAD,2023-12-10 23:17:57,15.08837102,0.0001583,53.2168,248.9818,103.8897,256.2271,-1.8947e-06,-3.18e-06,0.0,0 STARLINK-3329,1 50827U 22001AA  23344.97080409 -.00000318  00000-0 -18947-5 0  9998,2 50827  53.2168 248.9818 0001583 103.8897 256.2271 15.08837102107921,6917.889,95.438,540.849,538.659,0.0
50827.0,STARLINK-3329,PAYLOAD,2023-12-11 21:33:21,15.08841651,0.0001632,53.2171,244.819,109.3507,250.7662,4.6126e-05,4.46e-06,0.0,0 STARLINK-3329,1 50827U 22001AA  23345.89816128  .00000446  00000-0  46126-4 0  9994,2 50827  53.2171 244.8190 0001632 109.3507 250.7662 15.08841651106798,6917.875,95.437,540.869,538.611,0.0
50827.0,STARLINK-3329,PAYLOAD,2023-12-11 23:08:44,15.08840664,0.0001523,53.2158,244.518,97.6231,262.4934,0.00011978,1.619e-05,0.0,0 STARLINK-3329,1 50827U 22001AA  23345.96440076  .00001619  00000-0  11978-3 0  9996,2 50827  53.2158 244.5180 0001523  97.6231 262.4934 15.08840664106808,6917.878,95.438,540.797,538.69,0.0
50827.0,STARLINK-3329,PAYLOAD,2023-12-12 19:48:45,15.0882892,0.0001718,53.2163,240.6569,75.8208,284.2975,0.00021272,3.098e-05,0.0,0 STARLINK-3329,1 50827U 22001AA  23346.82552891  .00003098  00000-0  21272-3 0  9992,2 50827  53.2163 240.6569 0001718  75.8208 284.2975 15.08828920106932,6917.914,95.438,540.968,538.591,0.0
50827.0,STARLINK-3329,PAYLOAD,2023-12-13 00:34:54,15.08840092,0.0001426,53.2167,239.7647,92.9885,267.1271,7.516e-05,9.08e-06,0.0,0 STARLINK-3329,1 50827U 22001AA  23347.02424534  .00000908  00000-0  75160-4 0  9990,2 50827  53.2167 239.7647 0001426  92.9885 267.1271 15.08840092108237,6917.88,95.438,540.732,538.759,0.0
50827.0,STARLINK-3329,PAYLOAD,2023-12-13 22:50:19,15.08841234,0.0001547,53.2164,235.6033,70.0203,290.0955,-6.0614e-05,-1.253e-05,0.0,0 STARLINK-3329,1 50827U 22001AA  23347.95161188 -.00001253  00000-0 -60614-4 0  9999,2 50827  53.2164 235.6033 0001547  70.0203 290.0955 15.08841234107101,6917.877,95.437,540.812,538.671,0.0
50827.0,STARLINK-3329,PAYLOAD,2023-12-14 00:25:42,15.088097,0.0001779,53.2169,235.3049,76.1697,283.9493,0.0003992,6.066e-05,0.0,0 STARLINK-3329,1 50827U 22001AA  23348.01785760  .00006066  00000-0  39920-3 0  9995,2 50827  53.2169 235.3049 0001779  76.1697 283.9493 15.08809700108382,6917.973,95.439,541.069,538.607,0.0
50827.0,STARLINK-3329,PAYLOAD,2023-12-14 21:05:42,15.08847193,0.0001316,53.2157,231.4409,85.961,274.1533,0.00015231,2.137e-05,0.0,0 STARLINK-3329,1 50827U 22001AA  23348.87896020  .00002137  00000-0  15231-3 0  9995,2 50827  53.2157 231.4409 0001316  85.9610 274.1533 15.08847193108516,6917.858,95.437,540.634,538.813,0.0
50827.0,STARLINK-3329,PAYLOAD,2023-12-14 22:41:05,15.08849981,0.0001459,53.2161,231.1431,76.017,284.0984,0.00017491,2.498e-05,0.0,0 STARLINK-3329,1 50827U 22001AA  23348.94519851  .00002498  00000-0  17491-3 0  9997,2 50827  53.2161 231.1431 0001459  76.0170 284.0984 15.08849981107250,6917.85,95.437,540.724,538.706,0.0
50827.0,STARLINK-3329,PAYLOAD,2023-12-15 22:31:53,15.08839295,0.0001326,53.2167,226.6801,90.948,269.1665,3.1139e-05,2.08e-06,0.0,0 STARLINK-3329,1 50827U 22001AA  23349.93880963  .00000208  00000-0  31139-4 0  9995,2 50827  53.2167 226.6801 0001326  90.9480 269.1665 15.08839295107402,6917.883,95.438,540.665,538.83,0.0
50827.0,STARLINK-3329,PAYLOAD,2023-12-16 22:22:39,15.08846352,0.000134,53.2167,222.2185,97.9933,262.1211,-1.9437e-05,-5.97e-06,0.0,0 STARLINK-3329,1 50827U 22001AA  23350.93240579 -.00000597  00000-0 -19437-4 0  9990,2 50827  53.2167 222.2185 0001340  97.9933 262.1211 15.08846352107553,6917.861,95.437,540.653,538.799,0.0
50827.0,STARLINK-3329,PAYLOAD,2023-12-17 19:02:40,15.08838812,0.0001329,53.2163,218.3532,95.7004,264.414,0.00013384,1.843e-05,0.0,0 STARLINK-3329,1 50827U 22001AA  23351.79352771  .00001843  00000-0  13384-3 0  9990,2 50827  53.2163 218.3532 0001329  95.7004 264.4140 15.08838812108956,6917.884,95.438,540.668,538.83,0.0
50827.0,STARLINK-3329,PAYLOAD,2023-12-17 22:13:26,15.08846572,0.0001404,53.2152,217.7587,91.5528,268.5625,0.00023689,3.485e-05,0.0,0 STARLINK-3329,1 50827U 22001AA  23351.92600606  .00003485  00000-0  23689-3 0  9991,2 50827  53.2152 217.7587 0001404  91.5528 268.5625 15.08846572107703,6917.86,95.437,540.697,538.754,0.0
50827.0,STARLINK-3329,PAYLOAD,2023-12-18 22:04:14,15.08833284,0.000143,53.215,213.2983,94.1501,265.9655,-3.3047e-05,-8.14e-06,0.0,0 STARLINK-3329,1 50827U 22001AA  23352.91961461 -.00000814  00000-0 -33047-4 0  9995,2 50827  53.2150 213.2983 0001430  94.1501 265.9655 15.08833284107857,6917.901,95.438,540.755,538.777,0.0
50827.0,STARLINK-3329,PAYLOAD,2023-12-19 20:19:38,15.08842257,0.000129,53.214,209.1344,89.3928,270.7212,1.2237e-05,-9.3e-07,0.0,0 STARLINK-3329,1 50827U 22001AA  23353.84697235 -.00000093  00000-0  12237-4 0  9999,2 50827  53.2140 209.1344 0001290  89.3928 270.7212 15.08842257109264,6917.873,95.437,540.631,538.846,0.0
50827.0,STARLINK-3329,PAYLOAD,2023-12-19 21:55:01,15.08843642,0.000129,53.2141,208.8368,85.2801,274.8338,3.974e-05,3.45e-06,0.0,0 STARLINK-3329,1 50827U 22001AA  23353.91321181  .00000345  00000-0  39740-4 0  9998,2 50827  53.2141 208.8368 0001290  85.2801 274.8338 15.08843642108006,6917.869,95.437,540.627,538.842,0.0
50827.0,STARLINK-3329,PAYLOAD,2023-12-20 21:45:48,15.08846059,0.0001357,53.2143,204.3789,85.3505,274.7642,0.00023971,3.53e-05,0.0,0 STARLINK-3329,1 50827U 22001AA  23354.90681277  .00003530  00000-0  23971-3 0  9990,2 50827  53.2143 204.3789 0001357  85.3505 274.7642 15.08846059108150,6917.862,95.437,540.666,538.788,0.0
50827.0,STARLINK-3329,PAYLOAD,2023-12-21 21:36:35,15.08844068,0.0001649,53.2152,199.9203,71.4219,288.6952,8.4348e-05,1.055e-05,0.0,0 STARLINK-3329,1 50827U 22001AA  23355.90041447  .00001055  00000-0  84348-4 0  9996,2 50827  53.2152 199.9203 0001649  71.4219 288.6952 15.08844068108305,6917.868,95.437,540.874,538.592,0.0
50827.0,STARLINK-3329,PAYLOAD,2023-12-22 19:51:59,15.08843229,0.0001724,53.2154,195.7568,71.2672,288.8507,9.7265e-05,1.26e-05,0.0,0 STARLINK-3329,1 50827U 22001AA  23356.82777497  .00001260  00000-0  97265-4 0  9999,2 50827  53.2154 195.7568 0001724  71.2672 288.8507 15.08843229108441,6917.871,95.437,540.928,538.543,0.0
50827.0,STARLINK-3329,PAYLOAD,2023-12-23 13:21:14,15.08843121,0.000164,53.215,192.4858,75.2793,284.8381,0.00012122,1.642e-05,0.0,0 STARLINK-3329,1 50827U 22001AA  23357.55641456  .00001642  00000-0  12122-3 0  9997,2 50827  53.2150 192.4858 0001640  75.2793 284.8381 15.08843121108557,6917.871,95.437,540.87,538.601,0.0
50827.0,STARLINK-3329,PAYLOAD,2023-12-23 19:42:46,15.08843177,0.0001432,53.2155,191.2933,89.2105,270.9051,7.5621e-05,9.16e-06,0.0,0 STARLINK-3329,1 50827U 22001AA  23357.82137214  .00000916  00000-0  75621-4 0  9996,2 50827  53.2155 191.2933 0001432  89.2105 270.9051 15.08843177109860,6917.871,95.437,540.726,538.745,0.0
50827.0,STARLINK-3329,PAYLOAD,2023-12-24 13:12:01,15.08836975,0.0001216,53.2163,188.0206,86.4314,273.6817,0.00011013,1.465e-05,0.0,0 STARLINK-3329,1 50827U 22001AA  23358.55001338  .00001465  00000-0  11013-3 0  9998,2 50827  53.2163 188.0206 0001216  86.4314 273.6817 15.08836975108707,6917.89,95.438,540.596,538.913,0.0
50827.0,STARLINK-3329,PAYLOAD,2023-12-24 19:33:33,15.08842343,0.0001488,53.216,186.8321,104.3435,255.7722,9.3005e-05,1.193e-05,0.0,0 STARLINK-3329,1 50827U 22001AA  23358.81497048  .00001193  00000-0  93005-4 0  9994,2 50827  53.2160 186.8321 0001488 104.3435 255.7722 15.08842343108749,6917.873,95.437,540.768,538.709,0.0
50827.0,STARLINK-3329,PAYLOAD,2023-12-25 13:02:48,15.0883888,0.0001509,53.2161,183.5614,102.5997,257.5164,5.2882e-05,5.54e-06,0.0,0 STARLINK-3329,1 50827U 22001AA  23359.54361404  .00000554  00000-0  52882-4 0  9999,2 50827  53.2161 183.5614 0001509 102.5997 257.5164 15.08838880108859,6917.884,95.438,540.793,538.705,0.0
50827.0,STARLINK-3329,PAYLOAD,2023-12-25 19:24:20,15.08838797,0.0001499,53.2162,182.3719,103.5763,256.5396,4.055e-05,3.57e-06,0.0,0 STARLINK-3329,1 50827U 22001AA  23359.80857413  .00000357  00000-0  40550-4 0  9998,2 50827  53.2162 182.3719 0001499 103.5763 256.5396 15.08838797110163,6917.884,95.438,540.786,538.712,0.0
50827.0,STARLINK-3329,PAYLOAD,2023-12-25 22:35:06,15.08840516,0.0001463,53.2159,181.7762,103.9022,256.2133,4.7245e-05,4.64e-06,0.0,0 STARLINK-3329,1 50827U 22001AA  23359.94105249  .00000464  00000-0  47245-4 0  9993,2 50827  53.2159 181.7762 0001463 103.9022 256.2133 15.08840516108911,6917.879,95.438,540.756,538.732,0.0
50827.0,STARLINK-3329,PAYLOAD,2023-12-26 17:39:45,15.08835429,0.0001153,53.2159,178.2052,78.9804,281.1318,-2.7115e-05,-7.19e-06,0.0,0 STARLINK-3329,1 50827U 22001AA  23360.73594006 -.00000719  00000-0 -27115-4 0  9994,2 50827  53.2159 178.2052 0001153  78.9804 281.1318 15.08835429110304,6917.894,95.438,540.557,538.962,0.0
50827.0,STARLINK-3329,PAYLOAD,2023-12-27 19:05:56,15.08832874,0.0001098,53.2159,173.4482,88.5168,271.595,6.0383e-05,6.73e-06,0.0,0 STARLINK-3329,1 50827U 22001AA  23361.79579297  .00000673  00000-0  60383-4 0  9997,2 50827  53.2159 173.4482 0001098  88.5168 271.5950 15.08832874110469,6917.902,95.438,540.527,539.008,0.0
50827.0,STARLINK-3329,PAYLOAD,2023-12-27 20:41:19,15.088313,0.0001124,53.2157,173.1511,89.2852,270.8268,4.3402e-05,4.03e-06,0.0,0 STARLINK-3329,1 50827U 22001AA  23361.86203417  .00000403  00000-0  43402-4 0  9997,2 50827  53.2157 173.1511 0001124  89.2852 270.8268 15.08831300109202,6917.907,95.438,540.55,538.994,0.0
